IRIDIUM 63              
1 25286U 98021B   25356.02936185  .00000378  00000+0  12144-3 0  9990
2 25286  86.3979   3.3155 0002342  86.0528 274.0937 14.36742895450813
IRIDIUM 69              
1 25319U 98026A   25356.08794759  .00000386  00000+0  11334-3 0  9996
2 25319  86.3971  15.9858 0004458 108.3686 251.7998 14.41224959450129
IRIDIUM 71              
1 25320U 98026B   25356.14350095  .00000281  00000+0  80765-4 0  9995
2 25320  86.3971  10.6342 0002886 137.9345 222.2077 14.41323418450664
IRIDIUM 73              
1 25344U 98032C   25356.01346494  .00000609  00000+0  14560-3 0  9995
2 25344  86.4412 327.0471 0003016  86.1147 274.0403 14.52001712457814
IRIDIUM 82              
1 25467U 98051A   25355.50995158  .00037016  00000+0  67650-3 0  9992
2 25467  86.3597  16.6904 0058127 300.0548  59.4952 15.47307312452753
